0 THORAD AGENA D DEB
1 04173U 69082AR  13282.80776105  .00001489  00000-0  36924-3 0  7144
2 04173 070.0784 197.9025 0043270 329.9819 091.5564 14.53286305296614
0 THORAD AGENA D DEB
1 04173U 69082AR  13287.68757331  .00002173  00000-0  53152-3 0  7160
2 04173 070.0791 186.4894 0043318 323.1823 061.7840 14.53302973297328
0 THORAD AGENA D DEB
1 04173U 69082AR  13289.97235424  .00002609  00000-0  63490-3 0  7179
2 04173 070.0786 181.1450 0043462 319.9855 135.4678 14.53316017297658
0 THORAD AGENA D DEB
1 04173U 69082AR  13292.11638458  .00002354  00000-0  57414-3 0  7180
2 04173 070.0779 176.1294 0043449 317.1742 192.6619 14.53326345297969
0 THORAD AGENA D DEB
1 04173U 69082AR  13294.78446249  .00002503  00000-0  60945-3 0  7190
2 04173 070.0778 169.8874 0043498 313.5007 111.8520 14.53337875298357
